CCSDS_OMM_VERS = 2.0
CREATION_DATE  = 
ORIGINATOR     = 

OBJECT_NAME    = SL-16 R/B
OBJECT_ID      = 1993-016B
CENTER_NAME    = EARTH
REF_FRAME      = TEME
TIME_SYSTEM    = UTC
MEAN_ELEMENT_THEORY = SGP/SGP4

EPOCH          = 2025-12-03T15:48:01.462464
MEAN_MOTION    = 14.15288617
ECCENTRICITY   = .00078267
INCLINATION    = 71.0091
RA_OF_ASC_NODE = 56.8765
ARG_OF_PERICENTER = 114.9267
MEAN_ANOMALY   = 245.2670

EPHEMERIS_TYPE = 0
CLASSIFICATION_TYPE = U
NORAD_CAT_ID   = 22566
ELEMENT_SET_NO = 999
REV_AT_EPOCH   = 68858
BSTAR          = -.65580761E-4
MEAN_MOTION_DOT = -.175E-5
MEAN_MOTION_DDOT = 0

CCSDS_OMM_VERS = 2.0
CREATION_DATE  = 
ORIGINATOR     = 

OBJECT_NAME    = COSMOS 2242
OBJECT_ID      = 1993-024A
CENTER_NAME    = EARTH
REF_FRAME      = TEME
TIME_SYSTEM    = UTC
MEAN_ELEMENT_THEORY = SGP/SGP4

EPOCH          = 2025-12-03T12:57:03.828960
MEAN_MOTION    = 14.96043927
ECCENTRICITY   = .00147421
INCLINATION    = 82.5193
RA_OF_ASC_NODE = 358.6389
ARG_OF_PERICENTER = 268.4084
MEAN_ANOMALY   = 91.5449

EPHEMERIS_TYPE = 0
CLASSIFICATION_TYPE = U
NORAD_CAT_ID   = 22626
ELEMENT_SET_NO = 999
REV_AT_EPOCH   = 76601
BSTAR          = .30234553E-3
MEAN_MOTION_DOT = .3426E-4
MEAN_MOTION_DDOT = 0

CCSDS_OMM_VERS = 2.0
CREATION_DATE  = 
ORIGINATOR     = 

OBJECT_NAME    = SL-16 R/B
OBJECT_ID      = 1993-059B
CENTER_NAME    = EARTH
REF_FRAME      = TEME
TIME_SYSTEM    = UTC
MEAN_ELEMENT_THEORY = SGP/SGP4

EPOCH          = 2025-12-04T01:12:46.342368
MEAN_MOTION    = 14.17210616
ECCENTRICITY   = .0017453
INCLINATION    = 70.9895
RA_OF_ASC_NODE = 212.8090
ARG_OF_PERICENTER = 348.3969
MEAN_ANOMALY   = 11.6749

EPHEMERIS_TYPE = 0
CLASSIFICATION_TYPE = U
NORAD_CAT_ID   = 22803
ELEMENT_SET_NO = 999
REV_AT_EPOCH   = 66598
BSTAR          = .19702E-3
MEAN_MOTION_DOT = .35E-5
MEAN_MOTION_DDOT = 0

CCSDS_OMM_VERS = 2.0
CREATION_DATE  = 
ORIGINATOR     = 

OBJECT_NAME    = ARIANE 40 R/B
OBJECT_ID      = 1993-061H
CENTER_NAME    = EARTH
REF_FRAME      = TEME
TIME_SYSTEM    = UTC
MEAN_ELEMENT_THEORY = SGP/SGP4

EPOCH          = 2025-12-04T04:02:28.832928
MEAN_MOTION    = 14.32792695
ECCENTRICITY   = .0010387
INCLINATION    = 98.5088
RA_OF_ASC_NODE = 43.8539
ARG_OF_PERICENTER = 201.8477
MEAN_ANOMALY   = 158.2266

EPHEMERIS_TYPE = 0
CLASSIFICATION_TYPE = U
NORAD_CAT_ID   = 22830
ELEMENT_SET_NO = 999
REV_AT_EPOCH   = 68042
BSTAR          = .21339E-3
MEAN_MOTION_DOT = .539E-5
MEAN_MOTION_DDOT = 0

CCSDS_OMM_VERS = 2.0
CREATION_DATE  = 
ORIGINATOR     = 

OBJECT_NAME    = COSMOS 2278
OBJECT_ID      = 1994-023A
CENTER_NAME    = EARTH
REF_FRAME      = TEME
TIME_SYSTEM    = UTC
MEAN_ELEMENT_THEORY = SGP/SGP4

EPOCH          = 2025-12-03T13:17:29.869152
MEAN_MOTION    = 14.14351002
ECCENTRICITY   = .00088368
INCLINATION    = 71.0552
RA_OF_ASC_NODE = 16.2293
ARG_OF_PERICENTER = 193.5191
MEAN_ANOMALY   = 166.5697

EPHEMERIS_TYPE = 0
CLASSIFICATION_TYPE = U
NORAD_CAT_ID   = 23087
ELEMENT_SET_NO = 999
REV_AT_EPOCH   = 63121
BSTAR          = .24053508E-4
MEAN_MOTION_DOT = -.1E-7
MEAN_MOTION_DDOT = 0

CCSDS_OMM_VERS = 2.0
CREATION_DATE  = 
ORIGINATOR     = 

OBJECT_NAME    = SL-16 R/B
OBJECT_ID      = 1994-023B
CENTER_NAME    = EARTH
REF_FRAME      = TEME
TIME_SYSTEM    = UTC
MEAN_ELEMENT_THEORY = SGP/SGP4

EPOCH          = 2025-12-03T22:14:49.422624
MEAN_MOTION    = 14.14998435
ECCENTRICITY   = .00010641
INCLINATION    = 71.0002
RA_OF_ASC_NODE = 271.9922
ARG_OF_PERICENTER = 70.1727
MEAN_ANOMALY   = 289.9511

EPHEMERIS_TYPE = 0
CLASSIFICATION_TYPE = U
NORAD_CAT_ID   = 23088
ELEMENT_SET_NO = 999
REV_AT_EPOCH   = 63254
BSTAR          = .2292972E-3
MEAN_MOTION_DOT = .396E-5
MEAN_MOTION_DDOT = 0

CCSDS_OMM_VERS = 2.0
CREATION_DATE  = 
ORIGINATOR     = 

OBJECT_NAME    = SL-16 R/B
OBJECT_ID      = 1994-074B
CENTER_NAME    = EARTH
REF_FRAME      = TEME
TIME_SYSTEM    = UTC
MEAN_ELEMENT_THEORY = SGP/SGP4

EPOCH          = 2025-12-04T02:00:23.700096
MEAN_MOTION    = 14.79274687
ECCENTRICITY   = .000691
INCLINATION    = 97.7211
RA_OF_ASC_NODE = 7.7320
ARG_OF_PERICENTER = 161.0830
MEAN_ANOMALY   = 256.0770

EPHEMERIS_TYPE = 0
CLASSIFICATION_TYPE = U
NORAD_CAT_ID   = 23343
ELEMENT_SET_NO = 999
REV_AT_EPOCH   = 67311
BSTAR          = .14229E-3
MEAN_MOTION_DOT = .1009E-4
MEAN_MOTION_DDOT = 0

CCSDS_OMM_VERS = 2.0
CREATION_DATE  = 
ORIGINATOR     = 

OBJECT_NAME    = SL-16 R/B
OBJECT_ID      = 1994-077B
CENTER_NAME    = EARTH
REF_FRAME      = TEME
TIME_SYSTEM    = UTC
MEAN_ELEMENT_THEORY = SGP/SGP4

EPOCH          = 2025-12-04T00:23:49.926048
MEAN_MOTION    = 14.15545805
ECCENTRICITY   = .0004575
INCLINATION    = 70.9810
RA_OF_ASC_NODE = 193.7649
ARG_OF_PERICENTER = 290.8144
MEAN_ANOMALY   = 69.2488

EPHEMERIS_TYPE = 0
CLASSIFICATION_TYPE = U
NORAD_CAT_ID   = 23405
ELEMENT_SET_NO = 999
REV_AT_EPOCH   = 60269
BSTAR          = .43091E-4
MEAN_MOTION_DOT = .36E-6
MEAN_MOTION_DDOT = 0

CCSDS_OMM_VERS = 2.0
CREATION_DATE  = 
ORIGINATOR     = 

OBJECT_NAME    = ARIANE 40+ R/B
OBJECT_ID      = 1995-021B
CENTER_NAME    = EARTH
REF_FRAME      = TEME
TIME_SYSTEM    = UTC
MEAN_ELEMENT_THEORY = SGP/SGP4

EPOCH          = 2025-12-03T18:44:08.831328
MEAN_MOTION    = 14.39684124
ECCENTRICITY   = .00077339
INCLINATION    = 98.4664
RA_OF_ASC_NODE = 45.4773
ARG_OF_PERICENTER = 73.3006
MEAN_ANOMALY   = 37.1321

EPHEMERIS_TYPE = 0
CLASSIFICATION_TYPE = U
NORAD_CAT_ID   = 23561
ELEMENT_SET_NO = 999
REV_AT_EPOCH   = 60544
BSTAR          = .18282747E-3
MEAN_MOTION_DOT = .529E-5
MEAN_MOTION_DDOT = 0

CCSDS_OMM_VERS = 2.0
CREATION_DATE  = 
ORIGINATOR     = 

OBJECT_NAME    = SL-16 R/B
OBJECT_ID      = 1995-058B
CENTER_NAME    = EARTH
REF_FRAME      = TEME
TIME_SYSTEM    = UTC
MEAN_ELEMENT_THEORY = SGP/SGP4

EPOCH          = 2025-12-03T21:03:34.671168
MEAN_MOTION    = 14.15478920
ECCENTRICITY   = .00148878
INCLINATION    = 71.0225
RA_OF_ASC_NODE = 21.4111
ARG_OF_PERICENTER = 266.3755
MEAN_ANOMALY   = 93.5666

EPHEMERIS_TYPE = 0
CLASSIFICATION_TYPE = U
NORAD_CAT_ID   = 23705
ELEMENT_SET_NO = 999
REV_AT_EPOCH   = 55429
BSTAR          = .22572736E-3
MEAN_MOTION_DOT = .394E-5
MEAN_MOTION_DDOT = 0

CCSDS_OMM_VERS = 2.0
CREATION_DATE  = 
ORIGINATOR     = 

OBJECT_NAME    = SL-16 R/B
OBJECT_ID      = 1996-051B
CENTER_NAME    = EARTH
REF_FRAME      = TEME
TIME_SYSTEM    = UTC
MEAN_ELEMENT_THEORY = SGP/SGP4

EPOCH          = 2025-12-04T03:09:30.515616
MEAN_MOTION    = 14.12395201
ECCENTRICITY   = .0019211
INCLINATION    = 70.7602
RA_OF_ASC_NODE = 17.5051
ARG_OF_PERICENTER = 272.0320
MEAN_ANOMALY   = 87.8600

EPHEMERIS_TYPE = 0
CLASSIFICATION_TYPE = U
NORAD_CAT_ID   = 24298
ELEMENT_SET_NO = 999
REV_AT_EPOCH   = 50815
BSTAR          = .53118E-4
MEAN_MOTION_DOT = .49E-6
MEAN_MOTION_DDOT = 0

CCSDS_OMM_VERS = 2.0
CREATION_DATE  = 
ORIGINATOR     = 

OBJECT_NAME    = ORBVIEW 2 (SEASTAR)
OBJECT_ID      = 1997-037A
CENTER_NAME    = EARTH
REF_FRAME      = TEME
TIME_SYSTEM    = UTC
MEAN_ELEMENT_THEORY = SGP/SGP4

EPOCH          = 2025-12-03T23:49:48.916128
MEAN_MOTION    = 14.35407256
ECCENTRICITY   = .00021
INCLINATION    = 98.8454
RA_OF_ASC_NODE = 134.8473
ARG_OF_PERICENTER = 9.0188
MEAN_ANOMALY   = 351.1034

EPHEMERIS_TYPE = 0
CLASSIFICATION_TYPE = U
NORAD_CAT_ID   = 24883
ELEMENT_SET_NO = 999
REV_AT_EPOCH   = 49474
BSTAR          = .25508E-3
MEAN_MOTION_DOT = .686E-5
MEAN_MOTION_DDOT = 0

