SL-16 R/B               
1 22566U 93016B   25337.65835026 -.00000175  00000+0 -65581-4 0  9998
2 22566  71.0091  56.8765 0007826 114.9267 245.2670 14.15288617688585
COSMOS 2242             
1 22626U 93024A   25337.53962765  .00003426  00000+0  30235-3 0  9999
2 22626  82.5193 358.6389 0014742 268.4084  91.5449 14.96043927766017
SL-16 R/B               
1 22803U 93059B   25338.05053637  .00000350  00000+0  19702-3 0  9990
2 22803  70.9895 212.8090 0017453 348.3969  11.6749 14.17210616665980
ARIANE 40 R/B           
1 22830U 93061H   25338.16838927  .00000539  00000+0  21339-3 0  9996
2 22830  98.5088  43.8539 0010387 201.8477 158.2266 14.32792695680423
COSMOS 2278             
1 23087U 94023A   25337.55381793 -.00000001  00000+0  24054-4 0  9999
2 23087  71.0552  16.2293 0008836 193.5191 166.5697 14.14351002631213
SL-16 R/B               
1 23088U 94023B   25337.92696091  .00000396  00000+0  22930-3 0  9997
2 23088  71.0002 271.9922 0001064  70.1727 289.9511 14.14998435632543
SL-16 R/B               
1 23343U 94074B   25338.08360764  .00001009  00000+0  14229-3 0  9994
2 23343  97.7211   7.7320 0006910 161.0830 256.0770 14.79274687673118
SL-16 R/B               
1 23405U 94077B   25338.01655007  .00000036  00000+0  43091-4 0  9995
2 23405  70.9810 193.7649 0004575 290.8144  69.2488 14.15545805602697
ARIANE 40+ R/B          
1 23561U 95021B   25337.78065777  .00000529  00000+0  18283-3 0  9991
2 23561  98.4664  45.4773 0007733  73.3006  37.1321 14.39684124605443
SL-16 R/B               
1 23705U 95058B   25337.87748462  .00000394  00000+0  22573-3 0  9997
2 23705  71.0225  21.4111 0014887 266.3755  93.5666 14.15478920554299
SL-16 R/B               
1 24298U 96051B   25338.13160319  .00000049  00000+0  53118-4 0  9995
2 24298  70.7602  17.5051 0019211 272.0320  87.8600 14.12395201508154
ORBVIEW 2 (SEASTAR)     
1 24883U 97037A   25337.99292727  .00000686  00000+0  25508-3 0  9990
2 24883  98.8454 134.8473 0002100   9.0188 351.1034 14.35407256494746
